[{"OBJECT_NAME":"STARLINK-5844","OBJECT_ID":"2023-088W","EPOCH":"2026-03-09T19:40:23.820096","MEAN_MOTION":15.02583341,"ECCENTRICITY":0.00013868,"INCLINATION":43.0037,"RA_OF_ASC_NODE":106.3865,"ARG_OF_PERICENTER":257.8065,"MEAN_ANOMALY":102.2622,"EPHEMERIS_TYPE":0,"CLASSIFICATION_TYPE":"U","NORAD_CAT_ID":57068,"ELEMENT_SET_NO":999,"REV_AT_EPOCH":15039,"BSTAR":-0.0007433388,"MEAN_MOTION_DOT":-0.00010243,"MEAN_MOTION_DDOT":0},{"OBJECT_NAME":"NTS (CANX-6)","OBJECT_ID":"2008-021B","EPOCH":"2026-03-09T21:01:43.854528","MEAN_MOTION":15.02479058,"ECCENTRICITY":0.00123192,"INCLINATION":97.9039,"RA_OF_ASC_NODE":46.2456,"ARG_OF_PERICENTER":105.3107,"MEAN_ANOMALY":254.9479,"EPHEMERIS_TYPE":0,"CLASSIFICATION_TYPE":"U","NORAD_CAT_ID":32784,"ELEMENT_SET_NO":999,"REV_AT_EPOCH":96921,"BSTAR":0.00045679857,"MEAN_MOTION_DOT":6.01e-5,"MEAN_MOTION_DDOT":0}]
